STARLINK-36558          
1 67499U 26012G   26137.69031234  .00001025  00000+0  46782-4 0  9991
2 67499  43.0019 284.8210 0000916 252.5705 107.5046 15.27570933 18319
STARLINK-36557          
1 67500U 26012H   26137.75184624  .00008001  00000+0  30001-3 0  9990
2 67500  43.0022 284.4096 0001222 267.3537  92.7175 15.27575098 18328
STARLINK-36433          
1 67501U 26012J   26137.81337406  .00005737  00000+0  21786-3 0  9999
2 67501  43.0036 284.0097 0001531 264.8004  95.2673 15.27575242 18338
STARLINK-36554          
1 67502U 26012K   26137.80694992  .00004041  00000+0  15633-3 0  9996
2 67502  43.0025 283.9609 0002189 265.5035  94.5567 15.27569347 18339
STARLINK-36552          
1 67503U 26012L   26137.80309426  .00010604  00000+0  39444-3 0  9990
2 67503  43.0042 283.9233 0001666 261.1292  98.9371 15.27567828 18331
STARLINK-36512          
1 67504U 26012M   26138.12231674  .00018554  00000+0  68221-3 0  9993
2 67504  43.0050 282.0258 0002671 261.6616  98.3933 15.27571523 18380
STARLINK-36545          
1 67505U 26012N   26138.11846652  .00011506  00000+0  42719-3 0  9995
2 67505  43.0039 281.9950 0001296 257.9031 102.1675 15.27564941 18389
STARLINK-36553          
1 67506U 26012P   26138.11460785  .00011104  00000+0  41215-3 0  9999
2 67506  43.0009 281.9594 0001634 261.7897  98.2769 15.27602558 18386
STARLINK-36521          
1 67507U 26012Q   26138.11204213  .00010343  00000+0  38494-3 0  9991
2 67507  43.0035 281.9408 0000715 255.6948 104.3824 15.27571228 18388
STARLINK-36526          
1 67508U 26012R   26138.10818407  .00011325  00000+0  42052-3 0  9993
2 67508  43.0026 281.9108 0001454 260.0700  99.9988 15.27573098 18380
STARLINK-36541          
1 67509U 26012S   26138.10319681  .00015527  00000+0  57264-3 0  9993
2 67509  43.0017 282.7640 0001651 263.1441  96.9222 15.27574771 18372
STARLINK-36549          
1 67510U 26012T   26138.10946897  .00020387  00000+0  74823-3 0  9990
2 67510  43.0024 281.9050 0001275 277.7322  82.3384 15.27585024 18381
STARLINK-36540          
1 67511U 26012U   26138.09934458  .00015837  00000+0  58383-3 0  9996
2 67511  43.0005 282.7324 0001635 285.5592  74.5079 15.27576326 18378
STARLINK-36538          
1 67512U 26012V   26138.09419838  .00019271  00000+0  70816-3 0  9998
2 67512  43.0016 282.6754 0001594 259.8500 100.2172 15.27572574 18376
STARLINK-36531          
1 67513U 26012W   26138.08391712  .00014386  00000+0  53127-3 0  9996
2 67513  43.0012 282.5976 0001962 265.3277  94.7350 15.27579469 18375
STARLINK-36530          
1 67514U 26012X   26137.75313097  .00017618  00000+0  64854-3 0  9990
2 67514  43.0039 284.4180 0001994 277.8921  82.1704 15.27562623 18325
STARLINK-36543          
1 67515U 26012Y   26137.81466647  .00016271  00000+0  59947-3 0  9999
2 67515  43.0033 284.0198 0001591 265.4227  94.6443 15.27581801 18338
STARLINK-36537          
1 67516U 26012Z   26137.80437874  .00016540  00000+0  60934-3 0  9996
2 67516  43.0037 283.9323 0002042 260.8460  99.2160 15.27573046 18330
STARLINK-36544          
1 67517U 26012AA  26137.81080353  .00009459  00000+0  35287-3 0  9998
2 67517  43.0030 283.9818 0001630 257.9091 102.1578 15.27573675 18337
STARLINK-36412          
1 67518U 26012AB  26138.11974981  .00010589  00000+0  39391-3 0  9998
2 67518  43.0036 281.9991 0001695 263.1800  96.8859 15.27569437 18389
STARLINK-36415          
1 67519U 26012AC  26138.11589303  .00010264  00000+0  38210-3 0  9998
2 67519  43.0035 281.9615 0001490 261.3233  98.7450 15.27569554 18383
STARLINK-36547          
1 67520U 26012AD  26138.12360242  .00016163  00000+0  59562-3 0  9997
2 67520  43.0041 282.0274 0001942 265.3064  94.7566 15.27578215 18381
STARLINK-36444          
1 67521U 26012AE  26138.12745905  .00009154  00000+0  34187-3 0  9999
2 67521  43.0041 282.0574 0001916 261.7143  98.3491 15.27569068 18387
HULIANWANG DIGUI-146    
1 67522U 26013A   26138.16242093 -.00000116  00000+0  17923-4 0  9995
2 67522  50.0067 103.5719 0000905 357.6808   2.4060 13.29327946 16059
HULIANWANG DIGUI-147    
1 67523U 26013B   26138.15404436 -.00000119  00000+0  11580-4 0  9992
2 67523  50.0039 103.4938 0000813 355.7334   4.3531 13.29328394 16054
HULIANWANG DIGUI-148    
1 67524U 26013C   26138.14566693 -.00000117  00000+0  14355-4 0  9997
2 67524  50.0076 103.4957 0000847 358.5966   1.4903 13.29329165 16054
HULIANWANG DIGUI-149    
1 67525U 26013D   26138.21256782 -.00000121  00000+0  72987-5 0  9992
2 67525  50.0071 103.1769 0001003   7.2861 352.8026 13.29326880 16066
HULIANWANG DIGUI-150    
1 67526U 26013E   26138.19586113 -.00000113  00000+0  24709-4 0  9993
2 67526  50.0033 103.0481 0000869 359.2046   0.8824 13.29326989 16087
HULIANWANG DIGUI-151    
1 67527U 26013F   26137.60276319 -.00000120  00000+0  97658-5 0  9995
2 67527  50.0078 105.2955 0000861 355.7186   4.3678 13.29327535 15987
HULIANWANG DIGUI-152    
1 67528U 26013G   26138.18748950 -.00000110  00000+0  29552-4 0  9991
2 67528  50.0026 102.9979 0000851 358.9601   1.1269 13.29327435 16067
