OBJECT_NAME,OBJECT_ID,EPOCH,MEAN_MOTION,ECCENTRICITY,INCLINATION,RA_OF_ASC_NODE,ARG_OF_PERICENTER,MEAN_ANOMALY,EPHEMERIS_TYPE,CLASSIFICATION_TYPE,NORAD_CAT_ID,ELEMENT_SET_NO,REV_AT_EPOCH,BSTAR,MEAN_MOTION_DOT,MEAN_MOTION_DDOT
STARLINK-36558,2026-012G,2026-05-17T16:34:02.986176,15.27570933,.00009166,43.0019,284.8210,252.5705,107.5046,0,U,67499,999,1831,.46782366E-4,.1025E-4,0
STARLINK-36557,2026-012H,2026-05-17T18:02:39.515136,15.27575098,.00012227,43.0022,284.4096,267.3537,92.7175,0,U,67500,999,1832,.30000593E-3,.8001E-4,0
STARLINK-36433,2026-012J,2026-05-17T19:31:15.518784,15.27575242,.00015312,43.0036,284.0097,264.8004,95.2673,0,U,67501,999,1833,.21786084E-3,.5737E-4,0
STARLINK-36554,2026-012K,2026-05-17T19:22:00.473088,15.27569347,.00021891,43.0025,283.9609,265.5035,94.5567,0,U,67502,999,1833,.15633185E-3,.4041E-4,0
STARLINK-36552,2026-012L,2026-05-17T19:16:27.344064,15.27567828,.00016669,43.0042,283.9233,261.1292,98.9371,0,U,67503,999,1833,.39444066E-3,.10604E-3,0
STARLINK-36512,2026-012M,2026-05-18T02:56:08.166336,15.27571523,.0002671,43.0050,282.0258,261.6616,98.3933,0,U,67504,999,1838,.68221E-3,.18554E-3,0
STARLINK-36545,2026-012N,2026-05-18T02:50:35.507328,15.27564941,.0001296,43.0039,281.9950,257.9031,102.1675,0,U,67505,999,1838,.42719E-3,.11506E-3,0
STARLINK-36553,2026-012P,2026-05-18T02:45:02.118240,15.27602558,.0001634,43.0009,281.9594,261.7897,98.2769,0,U,67506,999,1838,.41215E-3,.11104E-3,0
STARLINK-36521,2026-012Q,2026-05-18T02:41:20.440032,15.27571228,.0000715,43.0035,281.9408,255.6948,104.3824,0,U,67507,999,1838,.38494E-3,.10343E-3,0
STARLINK-36526,2026-012R,2026-05-18T02:35:47.103648,15.27573098,.0001454,43.0026,281.9108,260.0700,99.9988,0,U,67508,999,1838,.42052E-3,.11325E-3,0
STARLINK-36541,2026-012S,2026-05-18T02:28:36.204384,15.27574771,.0001651,43.0017,282.7640,263.1441,96.9222,0,U,67509,999,1837,.57264E-3,.15527E-3,0
STARLINK-36549,2026-012T,2026-05-18T02:37:38.119008,15.27585024,.0001275,43.0024,281.9050,277.7322,82.3384,0,U,67510,999,1838,.74823E-3,.20387E-3,0
STARLINK-36540,2026-012U,2026-05-18T02:23:03.371712,15.27576326,.0001635,43.0005,282.7324,285.5592,74.5079,0,U,67511,999,1837,.58383E-3,.15837E-3,0
STARLINK-36538,2026-012V,2026-05-18T02:15:38.740032,15.27572574,.0001594,43.0016,282.6754,259.8500,100.2172,0,U,67512,999,1837,.70816E-3,.19271E-3,0
STARLINK-36531,2026-012W,2026-05-18T02:00:50.439168,15.27579469,.0001962,43.0012,282.5976,265.3277,94.7350,0,U,67513,999,1837,.53127E-3,.14386E-3,0
STARLINK-36530,2026-012X,2026-05-17T18:04:30.515808,15.27562623,.00019947,43.0039,284.4180,277.8921,82.1704,0,U,67514,999,1832,.64853575E-3,.17618E-3,0
STARLINK-36543,2026-012Y,2026-05-17T19:33:07.183008,15.27581801,.00015914,43.0033,284.0198,265.4227,94.6443,0,U,67515,999,1833,.59947364E-3,.16271E-3,0
STARLINK-36537,2026-012Z,2026-05-17T19:18:18.323136,15.27573046,.00020421,43.0037,283.9323,260.8460,99.2160,0,U,67516,999,1833,.6093443E-3,.1654E-3,0
STARLINK-36544,2026-012AA,2026-05-17T19:27:33.424992,15.27573675,.00016309,43.0030,283.9818,257.9091,102.1578,0,U,67517,999,1833,.35286746E-3,.9459E-4,0
STARLINK-36412,2026-012AB,2026-05-18T02:52:26.383584,15.27569437,.0001695,43.0036,281.9991,263.1800,96.8859,0,U,67518,999,1838,.39391E-3,.10589E-3,0
STARLINK-36415,2026-012AC,2026-05-18T02:46:53.157792,15.27569554,.000149,43.0035,281.9615,261.3233,98.7450,0,U,67519,999,1838,.3821E-3,.10264E-3,0
STARLINK-36547,2026-012AD,2026-05-18T02:57:59.249088,15.27578215,.0001942,43.0041,282.0274,265.3064,94.7566,0,U,67520,999,1838,.59562E-3,.16163E-3,0
STARLINK-36444,2026-012AE,2026-05-18T03:03:32.461920,15.27569068,.0001916,43.0041,282.0574,261.7143,98.3491,0,U,67521,999,1838,.34187E-3,.9154E-4,0
HULIANWANG DIGUI-146,2026-013A,2026-05-18T03:53:53.168352,13.29327946,.0000905,50.0067,103.5719,357.6808,2.4060,0,U,67522,999,1605,.17923E-4,-.116E-5,0
HULIANWANG DIGUI-147,2026-013B,2026-05-18T03:41:49.432704,13.29328394,.0000813,50.0039,103.4938,355.7334,4.3531,0,U,67523,999,1605,.1158E-4,-.119E-5,0
HULIANWANG DIGUI-148,2026-013C,2026-05-18T03:29:45.622752,13.29329165,.0000847,50.0076,103.4957,358.5966,1.4903,0,U,67524,999,1605,.14355E-4,-.117E-5,0
HULIANWANG DIGUI-149,2026-013D,2026-05-18T05:06:05.859648,13.29326880,.0001003,50.0071,103.1769,7.2861,352.8026,0,U,67525,999,1606,.72987E-5,-.121E-5,0
HULIANWANG DIGUI-150,2026-013E,2026-05-18T04:42:02.401632,13.29326989,.0000869,50.0033,103.0481,359.2046,0.8824,0,U,67526,999,1608,.24709E-4,-.113E-5,0
HULIANWANG DIGUI-151,2026-013F,2026-05-17T14:27:58.739616,13.29327535,.0000861,50.0078,105.2955,355.7186,4.3678,0,U,67527,999,1598,.97658E-5,-.12E-5,0
HULIANWANG DIGUI-152,2026-013G,2026-05-18T04:29:59.092800,13.29327435,.0000851,50.0026,102.9979,358.9601,1.1269,0,U,67528,999,1606,.29552E-4,-.11E-5,0
